IRIDIUM 159             
1 43578U 18061K   25027.17516548  .00000499  00000+0  17129-3 0  9990
2 43578  86.3944 268.1388 0001897  78.8716 281.2693 14.34213888340854
IRIDIUM 180             
1 43922U 19002A   25027.45373978  .00000530  00000+0  18201-3 0  9996
2 43922  86.3977 204.9126 0002090  94.9912 265.1522 14.34220789316509
IRIDIUM 176             
1 43923U 19002B   25027.47931908  .00000876  00000+0  13494-3 0  9994
2 43923  86.6106 204.9057 0001137  70.5488 289.5851 14.72258186324844
IRIDIUM 168             
1 43924U 19002C   25027.51716236  .00000022  00000+0  86913-6 0  9997
2 43924  86.3981 204.9489 0001907  88.6067 271.5348 14.34217653316496
IRIDIUM 173             
1 43925U 19002D   25027.50447655 -.00000022  00000+0 -14945-4 0  9999
2 43925  86.3984 204.8640 0001880  95.1653 264.9758 14.34217603316476
IRIDIUM 169             
1 43926U 19002E   25027.51221903  .00000312  00000+0  95659-4 0  9998
2 43926  86.4200 236.4626 0002168 132.9047 227.2333 14.38601876317522
IRIDIUM 172             
1 43927U 19002F   25027.49813610  .00000211  00000+0  68195-4 0  9991
2 43927  86.3980 204.8729 0001895  89.9708 270.1705 14.34214802316480
IRIDIUM 175             
1 43928U 19002G   25027.40598821  .00002372  00000+0  37217-3 0  9997
2 43928  86.1545 165.4764 0003134 105.3352 254.8211 14.72255508324821
